{"type": "FeatureCollection", "features": [ {"type": "Feature", "properties": {"norad_id": 40115, "name": "WORLDVIEW-3 (WV-3)", "group": "resource", "lat": 42.64415584601862, "lon": -115.40527623490217, "alt_km": 606.6303143745563, "timestamp": "2025-12-10T23:33:12.483908+00:00", "meta": {"OBJECT_NAME": "WORLDVIEW-3 (WV-3)", "OBJECT_ID": "2014-048A", "EPOCH": "2025-12-10T14:51:23.693472", "MEAN_MOTION": 14.85503379, "ECCENTRICITY": 0.00045883, "INCLINATION": 97.8618, "RA_OF_ASC_NODE": 56.9259, "ARG_OF_PERICENTER": 191.867, "MEAN_ANOMALY": 168.2438, "EPHEMERIS_TYPE": 0, "CLASSIFICATION_TYPE": "U", "NORAD_CAT_ID": 40115, "ELEMENT_SET_NO": 999, "REV_AT_EPOCH": 61392, "BSTAR": 0.00022039261, "MEAN_MOTION_DOT": 1.849e-05, "MEAN_MOTION_DDOT": 0}, "tle": {"line1": "1 40115U 14048A   25344.61902423  .00001849  00000+0  22039-3 0  9993", "line2": "2 40115  97.8618  56.9259 0004588 191.8670 168.2438 14.85503379613923"}}, "geometry": {"type": "Point", "coordinates": [-115.40527623490217, 42.64415584601862]}}, {"type": "Feature", "properties": {"norad_id": 40118, "name": "GAOFEN-2", "group": "resource", "lat": -14.873855751047772, "lon": 46.297279643382424, "alt_km": 636.1429696125051, "timestamp": "2025-12-10T23:33:12.483918+00:00", "meta": {"OBJECT_NAME": "GAOFEN-2", "OBJECT_ID": "2014-049A", "EPOCH": "2025-12-10T15:30:41.374080", "MEAN_MOTION": 14.80601598, "ECCENTRICITY": 0.00084678, "INCLINATION": 98.0382, "RA_OF_ASC_NODE": 43.8107, "ARG_OF_PERICENTER": 118.4415, "MEAN_ANOMALY": 241.7651, "EPHEMERIS_TYPE": 0, "CLASSIFICATION_TYPE": "U", "NORAD_CAT_ID": 40118, "ELEMENT_SET_NO": 999, "REV_AT_EPOCH": 61133, "BSTAR": 0.00013939119, "MEAN_MOTION_DOT": 1.016e-05, "MEAN_MOTION_DDOT": 0}, "tle": {"line1": "1 40118U 14049A   25344.64631220  .00001016  00000+0  13939-3 0  9999", "line2": "2 40118  98.0382  43.8107 0008467 118.4415 241.7651 14.80601598611330"}}, "geometry": {"type": "Point", "coordinates": [46.297279643382424, -14.873855751047772]}}, {"type": "Feature", "properties": {"norad_id": 40143, "name": "YAOGAN-21", "group": "resource", "lat": 36.18285393331395, "lon": 23.082969513497847, "alt_km": 485.67404177088974, "timestamp": "2025-12-10T23:33:12.483927+00:00", "meta": {"OBJECT_NAME": "YAOGAN-21", "OBJECT_ID": "2014-053A", "EPOCH": "2025-12-10T13:56:12.916320", "MEAN_MOTION": 15.23643616, "ECCENTRICITY": 0.00099394, "INCLINATION": 97.1754, "RA_OF_ASC_NODE": 27.9868, "ARG_OF_PERICENTER": 48.1346, "MEAN_ANOMALY": 312.0739, "EPHEMERIS_TYPE": 0, "CLASSIFICATION_TYPE": "U", "NORAD_CAT_ID": 40143, "ELEMENT_SET_NO": 999, "REV_AT_EPOCH": 62621, "BSTAR": 0.00053918563, "MEAN_MOTION_DOT": 0.00012883, "MEAN_MOTION_DDOT": 0}, "tle": {"line1": "1 40143U 14053A   25344.58070505  .00012883  00000+0  53919-3 0  9994", "line2": "2 40143  97.1754  27.9868 0009939  48.1346 312.0739 15.23643616626212"}}, "geometry": {"type": "Point", "coordinates": [23.082969513497847, 36.18285393331395]}}, {"type": "Feature", "properties": {"norad_id": 40275, "name": "YAOGAN-22", "group": "resource", "lat": 70.07720370970415, "lon": -20.041838116829005, "alt_km": 1198.6982159832096, "timestamp": "2025-12-10T23:33:12.483936+00:00", "meta": {"OBJECT_NAME": "YAOGAN-22", "OBJECT_ID": "2014-063A", "EPOCH": "2025-12-10T15:42:39.022848", "MEAN_MOTION": 13.15522571, "ECCENTRICITY": 0.00059417, "INCLINATION": 100.742, "RA_OF_ASC_NODE": 128.0447, "ARG_OF_PERICENTER": 253.3649, "MEAN_ANOMALY": 106.6811, "EPHEMERIS_TYPE": 0, "CLASSIFICATION_TYPE": "U", "NORAD_CAT_ID": 40275, "ELEMENT_SET_NO": 999, "REV_AT_EPOCH": 53502, "BSTAR": 9.7845515e-05, "MEAN_MOTION_DOT": -1e-07, "MEAN_MOTION_DDOT": 0}, "tle": {"line1": "1 40275U 14063A   25344.65461832 -.00000010  00000+0  97846-4 0  9994", "line2": "2 40275 100.7420 128.0447 0005941 253.3649 106.6811 13.15522571535021"}}, "geometry": {"type": "Point", "coordinates": [-20.041838116829005, 70.07720370970415]}}, {"type": "Feature", "properties": {"norad_id": 40298, "name": "ASNARO", "group": "resource", "lat": 67.83716596785074, "lon": -100.51643025515969, "alt_km": 497.3510165244379, "timestamp": "2025-12-10T23:33:12.483945+00:00", "meta": {"OBJECT_NAME": "ASNARO", "OBJECT_ID": "2014-070A", "EPOCH": "2025-12-10T15:09:51.939360", "MEAN_MOTION": 15.19424864, "ECCENTRICITY": 0.00054291, "INCLINATION": 97.3644, "RA_OF_ASC_NODE": 60.6299, "ARG_OF_PERICENTER": 127.1777, "MEAN_ANOMALY": 232.9955, "EPHEMERIS_TYPE": 0, "CLASSIFICATION_TYPE": "U", "NORAD_CAT_ID": 40298, "ELEMENT_SET_NO": 999, "REV_AT_EPOCH": 61537, "BSTAR": 0.00087261173, "MEAN_MOTION_DOT": 0.00018456, "MEAN_MOTION_DDOT": 0}, "tle": {"line1": "1 40298U 14070A   25344.63185115  .00018456  00000+0  87261-3 0  9993", "line2": "2 40298  97.3644  60.6299 0005429 127.1777 232.9955 15.19424864615373"}}, "geometry": {"type": "Point", "coordinates": [-100.51643025515969, 67.83716596785074]}}, {"type": "Feature", "properties": {"norad_id": 40310, "name": "YAOGAN-24", "group": "resource", "lat": -3.2958232690079905, "lon": 116.5364148579534, "alt_km": 653.413597346369, "timestamp": "2025-12-10T23:33:12.483955+00:00", "meta": {"OBJECT_NAME": "YAOGAN-24", "OBJECT_ID": "2014-072A", "EPOCH": "2025-12-10T15:26:04.127712", "MEAN_MOTION": 14.76169116, "ECCENTRICITY": 0.00146208, "INCLINATION": 98.1224, "RA_OF_ASC_NODE": 115.7252, "ARG_OF_PERICENTER": 144.2705, "MEAN_ANOMALY": 215.9485, "EPHEMERIS_TYPE": 0, "CLASSIFICATION_TYPE": "U", "NORAD_CAT_ID": 40310, "ELEMENT_SET_NO": 999, "REV_AT_EPOCH": 59590, "BSTAR": 0.00019603795, "MEAN_MOTION_DOT": 1.304e-05, "MEAN_MOTION_DDOT": 0}, "tle": {"line1": "1 40310U 14072A   25344.64310333  .00001304  00000+0  19604-3 0  9993", "line2": "2 40310  98.1224 115.7252 0014620 144.2705 215.9485 14.76169116595909"}}, "geometry": {"type": "Point", "coordinates": [116.5364148579534, -3.2958232690079905]}}, {"type": "Feature", "properties": {"norad_id": 40336, "name": "CBERS 4", "group": "resource", "lat": -5.688656804225589, "lon": 43.894371794944426, "alt_km": 777.542514619231, "timestamp": "2025-12-10T23:33:12.483964+00:00", "meta": {"OBJECT_NAME": "CBERS 4", "OBJECT_ID": "2014-079A", "EPOCH": "2025-12-10T15:12:57.582720", "MEAN_MOTION": 14.35517132, "ECCENTRICITY": 0.00016024, "INCLINATION": 98.3306, "RA_OF_ASC_NODE": 42.7226, "ARG_OF_PERICENTER": 113.3101, "MEAN_ANOMALY": 246.8254, "EPHEMERIS_TYPE": 0, "CLASSIFICATION_TYPE": "U", "NORAD_CAT_ID": 40336, "ELEMENT_SET_NO": 999, "REV_AT_EPOCH": 57690, "BSTAR": 0.00015722071, "MEAN_MOTION_DOT": 4.1e-06, "MEAN_MOTION_DDOT": 0}, "tle": {"line1": "1 40336U 14079A   25344.63399980  .00000410  00000+0  15722-3 0  9996", "line2": "2 40336  98.3306  42.7226 0001602 113.3101 246.8254 14.35517132576909"}}, "geometry": {"type": "Point", "coordinates": [43.894371794944426, -5.688656804225589]}}, {"type": "Feature", "properties": {"norad_id": 40362, "name": "YAOGAN-26", "group": "resource", "lat": 12.596238382970887, "lon": -15.870789430709765, "alt_km": 445.73491307036693, "timestamp": "2025-12-10T23:33:12.483974+00:00", "meta": {"OBJECT_NAME": "YAOGAN-26", "OBJECT_ID": "2014-088A", "EPOCH": "2025-12-10T14:08:12.185088", "MEAN_MOTION": 15.39164473, "ECCENTRICITY": 0.00065623, "INCLINATION": 97.0649, "RA_OF_ASC_NODE": 345.3389, "ARG_OF_PERICENTER": 36.2525, "MEAN_ANOMALY": 323.9165, "EPHEMERIS_TYPE": 0, "CLASSIFICATION_TYPE": "U", "NORAD_CAT_ID": 40362, "ELEMENT_SET_NO": 999, "REV_AT_EPOCH": 60861, "BSTAR": 0.00033165725, "MEAN_MOTION_DOT": 0.00012812, "MEAN_MOTION_DDOT": 0}, "tle": {"line1": "1 40362U 14088A   25344.58902992  .00012812  00000+0  33166-3 0  9993", "line2": "2 40362  97.0649 345.3389 0006562  36.2525 323.9165 15.39164473608612"}}, "geometry": {"type": "Point", "coordinates": [-15.870789430709765, 12.596238382970887]}}, {"type": "Feature", "properties": {"norad_id": 40376, "name": "SMAP", "group": "resource", "lat": 20.97697073518523, "lon": -13.410936122044482, "alt_km": 681.975922017733, "timestamp": "2025-12-10T23:33:12.483983+00:00", "meta": {"OBJECT_NAME": "SMAP", "OBJECT_ID": "2015-003A", "EPOCH": "2025-12-10T13:36:37.880640", "MEAN_MOTION": 14.63340742, "ECCENTRICITY": 0.00012021, "INCLINATION": 98.1291, "RA_OF_ASC_NODE": 349.3222, "ARG_OF_PERICENTER": 88.7299, "MEAN_ANOMALY": 271.404, "EPHEMERIS_TYPE": 0, "CLASSIFICATION_TYPE": "U", "NORAD_CAT_ID": 40376, "ELEMENT_SET_NO": 999, "REV_AT_EPOCH": 58003, "BSTAR": 0.00018821335, "MEAN_MOTION_DOT": 9.25e-06, "MEAN_MOTION_DDOT": 0}, "tle": {"line1": "1 40376U 15003A   25344.56710510  .00000925  00000+0  18821-3 0  9990", "line2": "2 40376  98.1291 349.3222 0001202  88.7299 271.4040 14.63340742580033"}}, "geometry": {"type": "Point", "coordinates": [-13.410936122044482, 20.97697073518523]}}, {"type": "Feature", "properties": {"norad_id": 40536, "name": "KOMPSAT-3A", "group": "resource", "lat": -74.13393654477676, "lon": -12.426248665198617, "alt_km": 444.98117927013755, "timestamp": "2025-12-10T23:33:12.483992+00:00", "meta": {"OBJECT_NAME": "KOMPSAT-3A", "OBJECT_ID": "2015-014A", "EPOCH": "2025-12-10T14:32:57.756192", "MEAN_MOTION": 15.43819631, "ECCENTRICITY": 0.00046919, "INCLINATION": 97.6792, "RA_OF_ASC_NODE": 318.8349, "ARG_OF_PERICENTER": 131.5636, "MEAN_ANOMALY": 228.6014, "EPHEMERIS_TYPE": 0, "CLASSIFICATION_TYPE": "U", "NORAD_CAT_ID": 40536, "ELEMENT_SET_NO": 999, "REV_AT_EPOCH": 59262, "BSTAR": 0.00062247562, "MEAN_MOTION_DOT": 0.00028182, "MEAN_MOTION_DDOT": 0}, "tle": {"line1": "1 40536U 15014A   25344.60622403  .00028182  00000+0  62248-3 0  9995", "line2": "2 40536  97.6792 318.8349 0004691 131.5636 228.6014 15.43819631592629"}}, "geometry": {"type": "Point", "coordinates": [-12.426248665198617, -74.13393654477676]}}]}